{
"type": "FeatureCollection",
"name": "ferry_crossings",
"crs": { "type": "name", "properties": { "name": "urn:ogc:def:crs:OGC:1.3:CRS84" } },
"features": [
{ "type": "Feature", "properties": { "F1": 1.0, "Remarks": "Kiyindi-Buvuma", "Ferry_cros": "Kiyindi", "Water_body": "L.Victoria", "x_coordina": 33.152974235499997, "y_coordina": 0.27168058793099997, "Category": "Operational" }, "geometry": { "type": "Point", "coordinates": [ 33.152974235495975, 0.271680587930592 ] } },
{ "type": "Feature", "properties": { "F1": 2.0, "Remarks": "Masindi port Landing.", "Ferry_cros": "Masindi port", "Water_body": "R.Nile", "x_coordina": 32.092579078, "y_coordina": 1.6955713271399999, "Category": "Operational" }, "geometry": { "type": "Point", "coordinates": [ 32.092579077958305, 1.695571327140336 ] } },
{ "type": "Feature", "properties": { "F1": 3.0, "Remarks": "Nakiwogo-Buwaya", "Ferry_cros": "Nakiwogo", "Water_body": "L.Victoria", "x_coordina": 32.449417, "y_coordina": 0.080583, "Category": "Operational" }, "geometry": { "type": "Point", "coordinates": [ 32.449417, 0.080583 ] } },
{ "type": "Feature", "properties": { "F1": 4.0, "Remarks": "Starting point at Obongi.", "Ferry_cros": "Obongi", "Water_body": "R.Nile", "x_coordina": 31.559851011100001, "y_coordina": 3.2393003681299999, "Category": "Operational" }, "geometry": { "type": "Point", "coordinates": [ 31.559851011110517, 3.239300368125359 ] } },
{ "type": "Feature", "properties": { "F1": 5.0, "Remarks": "Namasale Zengebe", "Ferry_cros": "Kyoga", "Water_body": "R.Nile", "x_coordina": 32.613639, "y_coordina": 1.488778, "Category": "Operational" }, "geometry": { "type": "Point", "coordinates": [ 32.613639, 1.488778 ] } },
{ "type": "Feature", "properties": { "F1": 6.0, "Remarks": "At Laropi Landing site.", "Ferry_cros": "Laropi", "Water_body": "R.Nile", "x_coordina": 31.813037409300001, "y_coordina": 3.5518112566500002, "Category": "Operational" }, "geometry": { "type": "Point", "coordinates": [ 31.813037409295333, 3.551811256650697 ] } },
{ "type": "Feature", "properties": { "F1": 7.0, "Remarks": "Wanseko", "Ferry_cros": "Wanseko", "Water_body": "R.Nile", "x_coordina": 31.375332587900001, "y_coordina": 2.1754944620300001, "Category": "Operational" }, "geometry": { "type": "Point", "coordinates": [ 31.375332587903269, 2.175494462030044 ] } },
{ "type": "Feature", "properties": { "F1": 8.0, "Remarks": "Bisina", "Ferry_cros": "Bisina", "Water_body": "L.Bisina", "x_coordina": 33.923032079400002, "y_coordina": 1.6241731907400001, "Category": "Operational" }, "geometry": { "type": "Point", "coordinates": [ 33.923032079437874, 1.624173190741272 ] } },
{ "type": "Feature", "properties": { "F1": 10.0, "Remarks": "Semliki", "Ferry_cros": "Semliki", "Water_body": "R.Semiliki", "x_coordina": 30.228523831299999, "y_coordina": 1.0300911719600001, "Category": "Operational" }, "geometry": { "type": "Point", "coordinates": [ 30.228523831308472, 1.030091171963547 ] } },
{ "type": "Feature", "properties": { "F1": 11.0, "Remarks": "Sigulu", "Ferry_cros": "Sigulu", "Water_body": "L.Victoria", "x_coordina": 33.806904575099999, "y_coordina": 0.14494840739100001, "Category": "Operational" }, "geometry": { "type": "Point", "coordinates": [ 33.806904575087948, 0.144948407391487 ] } },
{ "type": "Feature", "properties": { "F1": 0.0, "Remarks": "Nakiwogo to Kalangala", "Ferry_cros": "Kalangala", "Water_body": "Lake Victoria", "x_coordina": 32.2915044119, "y_coordina": -0.30956462799899997, "Category": "Operational" }, "geometry": { "type": "Point", "coordinates": [ 32.291504411949198, -0.309564627998956 ] } },
{ "type": "Feature", "properties": { "F1": 0.0, "Remarks": "Bukakata to Kalangala", "Ferry_cros": "Bukakata", "Water_body": "Lake Victoria", "x_coordina": 32.026223059700001, "y_coordina": -0.27229317534000003, "Category": "Operational" }, "geometry": { "type": "Point", "coordinates": [ 32.026223059688029, -0.272293175339816 ] } },
{ "type": "Feature", "properties": { "F1": 0.0, "Remarks": "Nkusi to Bubembe and Bunyama", "Ferry_cros": "Nkusi", "Water_body": "Lake Victoria", "x_coordina": 32.291169171999996, "y_coordina": -0.459109302351, "Category": "Operational" }, "geometry": { "type": "Point", "coordinates": [ 32.291169172029065, -0.459109302351042 ] } },
{ "type": "Feature", "properties": { "F1": 0.0, "Remarks": "Bukungu to Kagwara to Akampala", "Ferry_cros": "Bukungu", "Water_body": "Lake Kyoga", "x_coordina": 32.868343999300002, "y_coordina": 1.43868329836, "Category": "Under Construction" }, "geometry": { "type": "Point", "coordinates": [ 32.868343999293984, 1.43868329835669 ] } },
{ "type": "Feature", "properties": { "F1": 0.0, "Remarks": "Murandi to Bwama to Kakoko", "Ferry_cros": "Bunyonyi", "Water_body": "Lake Bunyonyi", "x_coordina": 29.94385963, "y_coordina": -1.29496941033, "Category": "Under Construction" }, "geometry": { "type": "Point", "coordinates": [ 29.943859629953824, -1.294969410331166 ] } },
{ "type": "Feature", "properties": { "F1": 0.0, "Remarks": "Rhino camp to Amuru", "Ferry_cros": "Rhino Camp", "Water_body": "Albert Nile", "x_coordina": 31.350039036799998, "y_coordina": 2.7986785221099999, "Category": "Under Construction" }, "geometry": { "type": "Point", "coordinates": [ 31.350039036819375, 2.798678522112903 ] } },
{ "type": "Feature", "properties": { "F1": 0.0, "Remarks": null, "Ferry_cros": "Zengebe", "Water_body": "Lake Kyoga", "x_coordina": 32.583488192799997, "y_coordina": 1.39093194007, "Category": "Operational" }, "geometry": { "type": "Point", "coordinates": [ 32.58348819276123, 1.390931940072533 ] } },
{ "type": "Feature", "properties": { "F1": 0.0, "Remarks": null, "Ferry_cros": "Kagwara", "Water_body": "Lake Kyoga", "x_coordina": 33.089203591199997, "y_coordina": 1.4958865328, "Category": "Under Construction" }, "geometry": { "type": "Point", "coordinates": [ 33.08920359122159, 1.495886532798093 ] } },
{ "type": "Feature", "properties": { "F1": 0.0, "Remarks": null, "Ferry_cros": "Kaberamaido", "Water_body": "Lake Kyoga", "x_coordina": 32.888123548599999, "y_coordina": 1.5562057084300001, "Category": "Under Construction" }, "geometry": { "type": "Point", "coordinates": [ 32.888123548639847, 1.556205708429436 ] } },
{ "type": "Feature", "properties": { "F1": 0.0, "Remarks": "Nakiwogo - Bukasa", "Ferry_cros": "Bukasa", "Water_body": "Lake Victoria", "x_coordina": 32.519279556400001, "y_coordina": -0.37319886621499998, "Category": "Operational" }, "geometry": { "type": "Point", "coordinates": [ 32.451232488852639, -0.480129972294424 ] } }
]
}
