{
  "type": "FeatureCollection",
  "name": "kcca_roads",
  "crs": {
    "type": "name",
    "properties": {
      "name": "urn:ogc:def:crs:OGC:1.3:CRS84"
    }
  },
  "features": [
    {
      "type": "Feature",
      "properties": {
        "Road_No_1": "M3N2",
        "Link_Name": "Munyonyo Spur (dual)",
        "Road_Cla_1": "M",
        "Surface__1": "Bituminous",
        "Length_km_": 12.3441834469
      },
      "geometry": {
        "type": "LineString",
        "coordinates": [
          [
            32.62050015780998,
            0.239133052876238
          ],
          [
            32.61058762770384,
            0.236463866617022
          ],
          [
            32.60882892391324,
            0.235180749896609
          ],
          [
            32.60631704174927,
            0.228231471347907
          ],
          [
            32.6036441377159,
            0.216217412481285
          ],
          [
            32.60012006090201,
            0.208300347055841
          ],
          [
            32.598270005570534,
            0.207075165564679
          ],
          [
            32.594058713909284,
            0.206226190489364
          ],
          [
            32.591708554857746,
            0.206411291162237
          ],
          [
            32.585538502983994,
            0.209951287719082
          ],
          [
            32.582793815174135,
            0.210694404879625
          ],
          [
            32.576458584713734,
            0.210562058820458
          ],
          [
            32.56991249567328,
            0.209667139053221
          ],
          [
            32.55869056782477,
            0.209747613852654
          ],
          [
            32.55132752603806,
            0.207949440041897
          ],
          [
            32.548523014807415,
            0.207785976291704
          ],
          [
            32.546175905347766,
            0.208624911991395
          ],
          [
            32.54325254320295,
            0.211414976701804
          ],
          [
            32.539332893369874,
            0.213754022739337
          ],
          [
            32.53402233643191,
            0.215267297953971
          ]
        ]
      }
    },
    {
      "type": "Feature",
      "properties": {
        "Road_No_1": "A005",
        "Link_Name": "Busega - Bujuuko",
        "Road_Cla_1": "A",
        "Surface__1": "Bituminous",
        "Length_km_": 32.2296294816
      },
      "geometry": {
        "type": "LineString",
        "coordinates": [
          [
            32.51390975305439,
            0.311639109966993
          ],
          [
            32.51047703203635,
            0.318937458730468
          ],
          [
            32.50963001854597,
            0.319395412320034
          ],
          [
            32.507331966232535,
            0.319435415965985
          ],
          [
            32.504620909183735,
            0.321382247084005
          ],
          [
            32.50265986479131,
            0.324888936765515
          ],
          [
            32.501227832826835,
            0.325953847361329
          ],
          [
            32.49884778971836,
            0.326335808776135
          ],
          [
            32.49769775602461,
            0.327029752436831
          ],
          [
            32.496055723673194,
            0.330832413800996
          ],
          [
            32.49271265447172,
            0.332654253543035
          ],
          [
            32.485842505344856,
            0.333238210563844
          ],
          [
            32.48165841133682,
            0.331533347679491
          ],
          [
            32.472478212997125,
            0.326584788889055
          ],
          [
            32.46423403279658,
            0.327398716795511
          ],
          [
            32.45349579916255,
            0.322688129075947
          ],
          [
            32.4472946615235,
            0.322763125232088
          ],
          [
            32.444395606430085,
            0.320328341537997
          ],
          [
            32.44291557077415,
            0.319857379573414
          ],
          [
            32.42376915089023,
            0.328457626240349
          ],
          [
            32.4160969852332,
            0.32970351556031
          ],
          [
            32.412123900179495,
            0.329533534498379
          ],
          [
            32.401677685546495,
            0.33234528241424
          ],
          [
            32.39324449165306,
            0.331740338763756
          ],
          [
            32.38885540147392,
            0.330196475961662
          ],
          [
            32.38683835795347,
            0.32999648926214
          ],
          [
            32.37274304625111,
            0.332278293312919
          ],
          [
            32.37043247895527,
            0.333541641173917
          ]
        ]
      }
    },
    {
      "type": "Feature",
      "properties": {
        "Road_No_1": "A003",
        "Link_Name": "Kibuye - Zana",
        "Road_Cla_1": "A",
        "Surface__1": "Bituminous",
        "Length_km_": 4.891
      },
      "geometry": {
        "type": "LineString",
        "coordinates": [
          [
            32.57282196416545,
            0.293232898268208
          ],
          [
            32.570246638036636,
            0.289379825622677
          ],
          [
            32.566312246101916,
            0.280311897552903
          ],
          [
            32.565159042906,
            0.274359104167584
          ],
          [
            32.56663701904242,
            0.264277459070547
          ],
          [
            32.56504831979402,
            0.256859229793994
          ],
          [
            32.562247717238364,
            0.252257321880227
          ]
        ]
      }
    },
    {
      "type": "Feature",
      "properties": {
        "Road_No_1": "C178",
        "Link_Name": "Natete - Nakawuka - Kisubi",
        "Road_Cla_1": "C",
        "Surface__1": "Unsealed",
        "Length_km_": 28.107
      },
      "geometry": {
        "type": "LineString",
        "coordinates": [
          [
            32.532859996748684,
            0.299479992305928
          ],
          [
            32.52079766349725,
            0.294735190759561
          ],
          [
            32.519979965558505,
            0.292844325910065
          ],
          [
            32.51949487103135,
            0.288610295070418
          ],
          [
            32.517661715771695,
            0.28609514234541
          ],
          [
            32.517410304501915,
            0.281001655519388
          ],
          [
            32.51324091421974,
            0.27180065904877
          ],
          [
            32.51214485985223,
            0.264164929530279
          ],
          [
            32.50772374012897,
            0.25746996217436
          ],
          [
            32.505180738176534,
            0.25259352332109
          ],
          [
            32.497632476697916,
            0.241447324950518
          ],
          [
            32.49202514120908,
            0.234734244448091
          ],
          [
            32.49128836667918,
            0.231459206858337
          ],
          [
            32.48733456931403,
            0.224131003356747
          ],
          [
            32.482832524265326,
            0.218856452805729
          ],
          [
            32.479840075866804,
            0.217445020121983
          ],
          [
            32.47767447280767,
            0.213464275818348
          ],
          [
            32.475338087771235,
            0.210605353017664
          ],
          [
            32.47503260377756,
            0.20896784106418
          ],
          [
            32.47583258873344,
            0.20323208994175
          ],
          [
            32.47401750271709,
            0.197713380453164
          ],
          [
            32.47256173624739,
            0.196482945596041
          ],
          [
            32.46943448333209,
            0.195469585205382
          ],
          [
            32.46841905726633,
            0.194130603194981
          ],
          [
            32.46459990226859,
            0.191470676213088
          ],
          [
            32.4624252850045,
            0.188267986452684
          ],
          [
            32.46435753829413,
            0.182722264972554
          ],
          [
            32.46573251198733,
            0.181075760998836
          ],
          [
            32.46739503108895,
            0.180116834089451
          ],
          [
            32.472921678454775,
            0.180605534442697
          ],
          [
            32.47478190146787,
            0.179628516581325
          ],
          [
            32.482824814491565,
            0.178325986083129
          ],
          [
            32.48785721280323,
            0.179077029915894
          ],
          [
            32.490544204607026,
            0.177729104807204
          ],
          [
            32.494156729689756,
            0.179059114806379
          ],
          [
            32.498038886510706,
            0.179131599744715
          ],
          [
            32.49927903648754,
            0.178570720260717
          ],
          [
            32.50423075046241,
            0.172563643426898
          ],
          [
            32.51113267963824,
            0.16041368019869
          ],
          [
            32.51259750419611,
            0.159300931888869
          ],
          [
            32.513316511935884,
            0.155555482969049
          ],
          [
            32.52032607061446,
            0.1515025768173
          ],
          [
            32.525088898665025,
            0.152289776881834
          ],
          [
            32.529213804009004,
            0.147784441994861
          ],
          [
            32.531307767772894,
            0.142700047965573
          ],
          [
            32.531972776953545,
            0.142329133311769
          ],
          [
            32.534093586868764,
            0.142636776757014
          ],
          [
            32.53487542624968,
            0.142021593983178
          ],
          [
            32.53493835248542,
            0.141017372279754
          ],
          [
            32.5337342225486,
            0.137896115470099
          ],
          [
            32.533049070346664,
            0.130313432244751
          ]
        ]
      }
    },
    {
      "type": "Feature",
      "properties": {
        "Road_No_1": "A002",
        "Link_Name": "Busega - Mpigi",
        "Road_Cla_1": "A",
        "Surface__1": "Bituminous",
        "Length_km_": 25.342
      },
      "geometry": {
        "type": "LineString",
        "coordinates": [
          [
            32.51601544884181,
            0.306290505440188
          ],
          [
            32.50466000736544,
            0.296189991068266
          ],
          [
            32.50175001040757,
            0.292699983215627
          ],
          [
            32.49877000023818,
            0.291059988007688
          ],
          [
            32.49672000411842,
            0.28679999022538
          ],
          [
            32.49160819524893,
            0.285048901889824
          ],
          [
            32.48814547530531,
            0.284972138416773
          ],
          [
            32.48085176305329,
            0.27865089544241
          ],
          [
            32.478560002660586,
            0.278679991622764
          ],
          [
            32.476440005028344,
            0.278019995691548
          ],
          [
            32.47195000035677,
            0.279319982237093
          ],
          [
            32.470419997042896,
            0.279189990076419
          ],
          [
            32.46869000043359,
            0.277249989504813
          ],
          [
            32.4670500002298,
            0.273559985216569
          ],
          [
            32.46413000448826,
            0.271519983432721
          ],
          [
            32.462730000862585,
            0.271619988766631
          ],
          [
            32.46085000159128,
            0.273399992273629
          ],
          [
            32.45939000946814,
            0.275599989020144
          ],
          [
            32.456569999274286,
            0.282659989682552
          ],
          [
            32.45529000304542,
            0.284059982305824
          ],
          [
            32.4538599986675,
            0.284059995782439
          ],
          [
            32.44637299310803,
            0.278394998455668
          ],
          [
            32.4409855703051,
            0.27510379244552
          ],
          [
            32.4385030403166,
            0.27031305351527
          ],
          [
            32.436750009411355,
            0.268409990202056
          ],
          [
            32.42134770881832,
            0.260664376304338
          ],
          [
            32.41426373500179,
            0.258281243202435
          ],
          [
            32.406974815788814,
            0.258724553675512
          ],
          [
            32.40405351070177,
            0.257762131664752
          ],
          [
            32.40082190728786,
            0.255912394860865
          ],
          [
            32.39684970326533,
            0.252375505192657
          ],
          [
            32.38473420349268,
            0.24805091902429
          ],
          [
            32.38049720614893,
            0.244151611429014
          ],
          [
            32.35089000698761,
            0.240859986119347
          ],
          [
            32.34889000244234,
            0.238939985260892
          ],
          [
            32.343951413975255,
            0.228346300257843
          ],
          [
            32.33533678197007,
            0.221151777007555
          ]
        ]
      }
    },
    {
      "type": "Feature",
      "properties": {
        "Road_No_1": "C035",
        "Link_Name": "Buvuma Women's prison Access",
        "Road_Cla_1": "C",
        "Surface__1": "Bituminous",
        "Length_km_": 0.931
      },
      "geometry": {
        "type": "LineString",
        "coordinates": [
          [
            32.642620482570656,
            0.305542163355172
          ],
          [
            32.63949315898916,
            0.303750718124762
          ],
          [
            32.63737473691588,
            0.303154867785103
          ],
          [
            32.63679719315492,
            0.302167372585373
          ],
          [
            32.6368799706695,
            0.30075004954189
          ]
        ]
      }
    },
    {
      "type": "Feature",
      "properties": {
        "Road_No_1": "C150",
        "Link_Name": "Najjanankumbi - Busabala",
        "Road_Cla_1": "C",
        "Surface__1": "Unsealed",
        "Length_km_": 11.116
      },
      "geometry": {
        "type": "LineString",
        "coordinates": [
          [
            32.569236100854404,
            0.287144658066253
          ],
          [
            32.57032324248624,
            0.286260117086067
          ],
          [
            32.57149170208376,
            0.280967611186987
          ],
          [
            32.574142873103916,
            0.277900743683659
          ],
          [
            32.57725754590978,
            0.272525126125812
          ],
          [
            32.57882517651422,
            0.270473242020412
          ],
          [
            32.58434314532937,
            0.265470383690341
          ],
          [
            32.58877373556268,
            0.260214160160346
          ],
          [
            32.5937258956096,
            0.243676186174297
          ],
          [
            32.593995883347795,
            0.230512632729815
          ],
          [
            32.594400320357465,
            0.229146529216451
          ],
          [
            32.59582023945625,
            0.228033773560847
          ],
          [
            32.598965591112595,
            0.226948208704972
          ],
          [
            32.602749033046585,
            0.224442258992756
          ],
          [
            32.603510586446305,
            0.223570078380583
          ],
          [
            32.603971284821256,
            0.221900048785445
          ],
          [
            32.604995785298705,
            0.221004410247821
          ],
          [
            32.609992415837795,
            0.218751807695903
          ],
          [
            32.614737443259195,
            0.21563066758845
          ],
          [
            32.616022616881246,
            0.212310398106474
          ],
          [
            32.617119000892174,
            0.211758550013928
          ],
          [
            32.61797276483744,
            0.210455781949842
          ],
          [
            32.61954544843517,
            0.209587295211326
          ],
          [
            32.62003074711459,
            0.208791158483185
          ]
        ]
      }
    },
    {
      "type": "Feature",
      "properties": {
        "Road_No_1": "C022",
        "Link_Name": "Mbuya/SilverSprings-Kireka",
        "Road_Cla_1": "C",
        "Surface__1": "Bituminous",
        "Length_km_": 4.634
      },
      "geometry": {
        "type": "LineString",
        "coordinates": [
          [
            32.628903915393934,
            0.31799220602114
          ],
          [
            32.632998243781984,
            0.319209493627437
          ],
          [
            32.63530973166051,
            0.321087258734644
          ],
          [
            32.63656676471646,
            0.322872103036259
          ],
          [
            32.63790979299406,
            0.328892572239808
          ],
          [
            32.63418171524874,
            0.33436409136139
          ],
          [
            32.63437571639547,
            0.335685983139515
          ],
          [
            32.63619875505081,
            0.338051766720422
          ],
          [
            32.63857681520534,
            0.339914605759105
          ],
          [
            32.64615072508788,
            0.343515910921014
          ],
          [
            32.64796554857434,
            0.346287804500836
          ]
        ]
      }
    },
    {
      "type": "Feature",
      "properties": {
        "Road_No_1": "B100",
        "Link_Name": "Kubiri round about - Gayaza",
        "Road_Cla_1": "B",
        "Surface__1": "Bituminous",
        "Length_km_": 13.346
      },
      "geometry": {
        "type": "LineString",
        "coordinates": [
          [
            32.57145822579498,
            0.340745908435492
          ],
          [
            32.57089493978337,
            0.349231477944237
          ],
          [
            32.57161869719629,
            0.352892212289142
          ],
          [
            32.574029102546106,
            0.359233189884079
          ],
          [
            32.57658803275862,
            0.369212860605212
          ],
          [
            32.57636364232801,
            0.375465545052254
          ],
          [
            32.57714090667758,
            0.38331621593762
          ],
          [
            32.582747024871345,
            0.40028349968871
          ],
          [
            32.58433669071057,
            0.402522187850504
          ],
          [
            32.593110724745785,
            0.408158312426858
          ],
          [
            32.594384999369,
            0.409613156871911
          ],
          [
            32.60223860385152,
            0.437469902889081
          ],
          [
            32.60332408795772,
            0.438900323775776
          ],
          [
            32.611295900379105,
            0.445594612025756
          ],
          [
            32.61194387925043,
            0.446739375890065
          ],
          [
            32.61200042653643,
            0.448116151997876
          ]
        ]
      }
    },
    {
      "type": "Feature",
      "properties": {
        "Road_No_1": "A001",
        "Link_Name": "Kampala - Mukono",
        "Road_Cla_1": "A",
        "Surface__1": "Bituminous",
        "Length_km_": 17.737
      },
      "geometry": {
        "type": "LineString",
        "coordinates": [
          [
            32.6089995046991,
            0.326245469323732
          ],
          [
            32.610884220769265,
            0.327360389953581
          ],
          [
            32.62150003755775,
            0.336776653092714
          ],
          [
            32.64087072243348,
            0.344251651547052
          ],
          [
            32.653008705964425,
            0.347968896635425
          ],
          [
            32.65452748613035,
            0.348926867152167
          ],
          [
            32.65657962826265,
            0.35130123706696
          ],
          [
            32.658255954301936,
            0.352291409794444
          ],
          [
            32.66719295777421,
            0.352948405208223
          ],
          [
            32.68332537791963,
            0.35595049792433
          ],
          [
            32.704426840893646,
            0.366451225727179
          ],
          [
            32.709704004044376,
            0.367307227723676
          ],
          [
            32.71755718468241,
            0.370574488028181
          ],
          [
            32.72414961162529,
            0.369821761670597
          ],
          [
            32.72969099540435,
            0.372613910887526
          ],
          [
            32.73174672603815,
            0.372884666666548
          ],
          [
            32.73341635684401,
            0.372515482936396
          ],
          [
            32.735032633188794,
            0.371532507137131
          ],
          [
            32.74568916251295,
            0.361204190021924
          ],
          [
            32.75137469487517,
            0.35829877619235
          ]
        ]
      }
    },
    {
      "type": "Feature",
      "properties": {
        "Road_No_1": "A003N1",
        "Link_Name": "Kibuye - Zana(Dual Section)",
        "Road_Cla_1": "A",
        "Surface__1": "Bituminous",
        "Length_km_": 4.953
      },
      "geometry": {
        "type": "LineString",
        "coordinates": [
          [
            32.56202361401969,
            0.252329993731824
          ],
          [
            32.56479726435025,
            0.256438367844167
          ],
          [
            32.566566765698965,
            0.264376157216872
          ],
          [
            32.56508882888911,
            0.273810904697365
          ],
          [
            32.56612452454961,
            0.280083027319251
          ],
          [
            32.57027547278144,
            0.289705556898215
          ],
          [
            32.572661243292295,
            0.293322270693042
          ]
        ]
      }
    },
    {
      "type": "Feature",
      "properties": {
        "Road_No_1": "A006",
        "Link_Name": "Kampala - Kawempe",
        "Road_Cla_1": "A",
        "Surface__1": "Bituminous",
        "Length_km_": 7.675
      },
      "geometry": {
        "type": "LineString",
        "coordinates": [
          [
            32.57167942230373,
            0.340360341858723
          ],
          [
            32.56973062023202,
            0.343831898525774
          ],
          [
            32.56692273088245,
            0.347032571853509
          ],
          [
            32.56269371693191,
            0.349073977412362
          ],
          [
            32.562754465502664,
            0.355653353303757
          ],
          [
            32.561912786629556,
            0.360339057633452
          ],
          [
            32.5566067185091,
            0.374829438764464
          ],
          [
            32.557360076989404,
            0.377206631598071
          ],
          [
            32.55737001162687,
            0.379249236150578
          ],
          [
            32.55486384446613,
            0.384493283822571
          ],
          [
            32.548387778549376,
            0.393970090819832
          ],
          [
            32.545675715896756,
            0.400972770651933
          ]
        ]
      }
    },
    {
      "type": "Feature",
      "properties": {
        "Road_No_1": "A002",
        "Link_Name": "Kibuye - Natete - Busega",
        "Road_Cla_1": "A",
        "Surface__1": "Bituminous",
        "Length_km_": 6.524
      },
      "geometry": {
        "type": "LineString",
        "coordinates": [
          [
            32.57256123020275,
            0.293540040387381
          ],
          [
            32.56865451979216,
            0.292454174233534
          ],
          [
            32.55932455869866,
            0.294201403861544
          ],
          [
            32.54862571050192,
            0.295019648897482
          ],
          [
            32.53558283613034,
            0.298384911886037
          ],
          [
            32.51715669991942,
            0.306487376288114
          ],
          [
            32.51601544884181,
            0.306290505440188
          ]
        ]
      }
    },
    {
      "type": "Feature",
      "properties": {
        "Road_No_1": "C005",
        "Link_Name": "Salaama Road",
        "Road_Cla_1": "C",
        "Surface__1": "Bituminous",
        "Length_km_": 12.2
      },
      "geometry": {
        "type": "LineString",
        "coordinates": [
          [
            32.5716658547633,
            0.291636409245553
          ],
          [
            32.576218507157016,
            0.283098759674045
          ],
          [
            32.58174327200313,
            0.27535310733542
          ],
          [
            32.58478866076746,
            0.27201859929739
          ],
          [
            32.59009809496914,
            0.267804320783911
          ],
          [
            32.59621963197973,
            0.264654378078184
          ],
          [
            32.602328865000146,
            0.259492653246863
          ],
          [
            32.60502972383063,
            0.256478057141327
          ],
          [
            32.607992056188955,
            0.250993336165642
          ],
          [
            32.612040269557454,
            0.247954129511783
          ],
          [
            32.61597158783454,
            0.243383013827877
          ],
          [
            32.61922000213713,
            0.241340468836948
          ],
          [
            32.62091803705255,
            0.239420968055064
          ],
          [
            32.62083190512066,
            0.239111816770267
          ],
          [
            32.62059419395695,
            0.239555198282183
          ]
        ]
      }
    },
    {
      "type": "Feature",
      "properties": {
        "Road_No_1": "A010",
        "Link_Name": "Nsambya-Kabalagala-Gaba",
        "Road_Cla_1": "A",
        "Surface__1": "Bituminous",
        "Length_km_": 9.144
      },
      "geometry": {
        "type": "LineString",
        "coordinates": [
          [
            32.58313376976023,
            0.306909625215909
          ],
          [
            32.584488180788874,
            0.304573670098033
          ],
          [
            32.585594809874856,
            0.303623085470188
          ],
          [
            32.59970655029446,
            0.298112053630718
          ],
          [
            32.60462055949447,
            0.296973487252793
          ],
          [
            32.60610981021336,
            0.290436149857122
          ],
          [
            32.608274539943906,
            0.285341412667208
          ],
          [
            32.611294280701834,
            0.282069992366253
          ],
          [
            32.619875229265006,
            0.269381958545944
          ],
          [
            32.62468115026252,
            0.265741524481475
          ],
          [
            32.626735859982546,
            0.259403158735959
          ],
          [
            32.632845940634084,
            0.25450312905831
          ],
          [
            32.63576324982176,
            0.256371370943754
          ],
          [
            32.63677954957659,
            0.256152118411478
          ]
        ]
      }
    },
    {
      "type": "Feature",
      "properties": {
        "Road_No_1": "M20",
        "Link_Name": "Masanafu Interchange Slip 4",
        "Road_Cla_1": "M",
        "Surface__1": "Bituminous",
        "Length_km_": 0.369114577565
      },
      "geometry": {
        "type": "LineString",
        "coordinates": [
          [
            32.52918833377146,
            0.334955087824324
          ],
          [
            32.52771161126698,
            0.332004999093479
          ]
        ]
      }
    },
    {
      "type": "Feature",
      "properties": {
        "Road_No_1": "M20",
        "Link_Name": "Masanafu Interchange Slip 3",
        "Road_Cla_1": "M",
        "Surface__1": "Bituminous",
        "Length_km_": 0.501811025678
      },
      "geometry": {
        "type": "LineString",
        "coordinates": [
          [
            32.52677643908633,
            0.332567918129708
          ],
          [
            32.52974791149111,
            0.335925299276508
          ]
        ]
      }
    },
    {
      "type": "Feature",
      "properties": {
        "Road_No_1": "M20",
        "Link_Name": "Kampala NorthernBypass",
        "Road_Cla_1": "M",
        "Surface__1": "Bituminous",
        "Length_km_": 19.9991526352
      },
      "geometry": {
        "type": "LineString",
        "coordinates": [
          [
            32.65356419871344,
            0.348942659470829
          ],
          [
            32.651089502880396,
            0.355687864511508
          ],
          [
            32.65113891164283,
            0.360500790870268
          ],
          [
            32.64568647917909,
            0.36617399715072
          ],
          [
            32.64373918271207,
            0.366251499538933
          ],
          [
            32.63813755415464,
            0.361851277832288
          ],
          [
            32.636000371832445,
            0.3612816326391
          ],
          [
            32.63455104014646,
            0.361851277856117
          ],
          [
            32.633708179677775,
            0.362754186413641
          ],
          [
            32.6330067652638,
            0.366022867130219
          ],
          [
            32.632154217779366,
            0.367394666119729
          ],
          [
            32.628635519831604,
            0.369194667309237
          ],
          [
            32.62681997896038,
            0.369425238885868
          ],
          [
            32.61538808567748,
            0.368512642592837
          ],
          [
            32.61065644400697,
            0.365691542744962
          ],
          [
            32.606657218916254,
            0.365912424862654
          ],
          [
            32.60486686797681,
            0.365284652890062
          ],
          [
            32.60351829189428,
            0.363893476952613
          ],
          [
            32.60228984860789,
            0.360522104702647
          ],
          [
            32.60092189546024,
            0.359270434847011
          ],
          [
            32.59400075590642,
            0.358096266355853
          ],
          [
            32.59253204882959,
            0.357383239294391
          ],
          [
            32.58822375798215,
            0.350963255016909
          ],
          [
            32.58633743567336,
            0.349613685399327
          ],
          [
            32.58259405096038,
            0.349190215330938
          ],
          [
            32.57474867081943,
            0.352522840579233
          ],
          [
            32.56981569165451,
            0.352669865942977
          ],
          [
            32.56808363667332,
            0.352068442159054
          ],
          [
            32.56481939331604,
            0.349679062706966
          ],
          [
            32.559964386732645,
            0.349127897175623
          ],
          [
            32.5567247343323,
            0.347518847736941
          ],
          [
            32.54478075179009,
            0.345817894261938
          ],
          [
            32.53704953295228,
            0.343178416373608
          ],
          [
            32.531265032487205,
            0.337467239374241
          ],
          [
            32.5285018999873,
            0.333956406691047
          ],
          [
            32.52440291442271,
            0.327318538452995
          ],
          [
            32.52157567969095,
            0.31836135860472
          ],
          [
            32.51890371579343,
            0.31554068327969
          ]
        ]
      }
    },
    {
      "type": "Feature",
      "properties": {
        "Road_No_1": "M20",
        "Link_Name": "Namungoona Interchange Slip 4",
        "Road_Cla_1": "M",
        "Surface__1": "Bituminous",
        "Length_km_": 0.47884604415
      },
      "geometry": {
        "type": "LineString",
        "coordinates": [
          [
            32.53845857976554,
            0.343913572073613
          ],
          [
            32.54221949296477,
            0.34582370239549
          ]
        ]
      }
    },
    {
      "type": "Feature",
      "properties": {
        "Road_No_1": "A006N1",
        "Link_Name": "Bwaise (Dual)",
        "Road_Cla_1": "A",
        "Surface__1": "Bituminous",
        "Length_km_": 0.721311886616
      },
      "geometry": {
        "type": "LineString",
        "coordinates": [
          [
            32.562762803686965,
            0.354555283992726
          ],
          [
            32.56287370032364,
            0.350557248000601
          ],
          [
            32.563861888273316,
            0.348365575910771
          ]
        ]
      }
    },
    {
      "type": "Feature",
      "properties": {
        "Road_No_1": "M20",
        "Link_Name": "Bwaise Interchange Slip 3",
        "Road_Cla_1": "M",
        "Surface__1": "Bituminous",
        "Length_km_": 0.469337149089
      },
      "geometry": {
        "type": "LineString",
        "coordinates": [
          [
            32.558996848494004,
            0.348896291634294
          ],
          [
            32.56295327847754,
            0.350140058100593
          ]
        ]
      }
    },
    {
      "type": "Feature",
      "properties": {
        "Road_No_1": "B100N1",
        "Link_Name": "Kalerwe (Dual)",
        "Road_Cla_1": "B",
        "Surface__1": "Bituminous",
        "Length_km_": 1.72520592506
      },
      "geometry": {
        "type": "LineString",
        "coordinates": [
          [
            32.5729809257118,
            0.355890325370543
          ],
          [
            32.57090883777815,
            0.348911455299813
          ],
          [
            32.57183222878451,
            0.340825571840157
          ]
        ]
      }
    },
    {
      "type": "Feature",
      "properties": {
        "Road_No_1": "M20",
        "Link_Name": "Kyebando Interchange Slip 9",
        "Road_Cla_1": "M",
        "Surface__1": "Bituminous",
        "Length_km_": 0.476383001963
      },
      "geometry": {
        "type": "LineString",
        "coordinates": [
          [
            32.58565680890371,
            0.34953339227789
          ],
          [
            32.587617509802456,
            0.350684687707116
          ],
          [
            32.588518167943086,
            0.352400278376036
          ]
        ]
      }
    },
    {
      "type": "Feature",
      "properties": {
        "Road_No_1": "M20",
        "Link_Name": "Kyebando Interchange Slip 4",
        "Road_Cla_1": "M",
        "Surface__1": "Bituminous",
        "Length_km_": 0.499911799776
      },
      "geometry": {
        "type": "LineString",
        "coordinates": [
          [
            32.591583588723594,
            0.356408641038584
          ],
          [
            32.58962376226338,
            0.352371340640844
          ]
        ]
      }
    },
    {
      "type": "Feature",
      "properties": {
        "Road_No_1": "M20",
        "Link_Name": "Kyebando Interchange Slip 5",
        "Road_Cla_1": "M",
        "Surface__1": "Bituminous",
        "Length_km_": 0.1283201958
      },
      "geometry": {
        "type": "LineString",
        "coordinates": [
          [
            32.589624781313475,
            0.352372252631362
          ],
          [
            32.59051116700039,
            0.352655564944768
          ]
        ]
      }
    },
    {
      "type": "Feature",
      "properties": {
        "Road_No_1": "M20",
        "Link_Name": "Kyebando Interchange Slip 10",
        "Road_Cla_1": "M",
        "Surface__1": "Bituminous",
        "Length_km_": 0.145713914859
      },
      "geometry": {
        "type": "LineString",
        "coordinates": [
          [
            32.58851640656909,
            0.352399916414685
          ],
          [
            32.58731705979139,
            0.352672580716473
          ]
        ]
      }
    },
    {
      "type": "Feature",
      "properties": {
        "Road_No_1": "M20",
        "Link_Name": "Kyebando Interchange Slip 8",
        "Road_Cla_1": "M",
        "Surface__1": "Bituminous",
        "Length_km_": 0.249467679967
      },
      "geometry": {
        "type": "LineString",
        "coordinates": [
          [
            32.59047227343558,
            0.352513608241596
          ],
          [
            32.588702630797464,
            0.351241823020398
          ]
        ]
      }
    },
    {
      "type": "Feature",
      "properties": {
        "Road_No_1": "M20",
        "Link_Name": "Kisaasi Interchange Slip 7",
        "Road_Cla_1": "M",
        "Surface__1": "Bituminous",
        "Length_km_": 0.308440406864
      },
      "geometry": {
        "type": "LineString",
        "coordinates": [
          [
            32.603105215587384,
            0.363222263088566
          ],
          [
            32.604446191859836,
            0.365612591379601
          ]
        ]
      }
    },
    {
      "type": "Feature",
      "properties": {
        "Road_No_1": "M20",
        "Link_Name": "Kisaasi Interchange Slip 2",
        "Road_Cla_1": "M",
        "Surface__1": "Bituminous",
        "Length_km_": 0.420423658551
      },
      "geometry": {
        "type": "LineString",
        "coordinates": [
          [
            32.60457496060633,
            0.366373668415928
          ],
          [
            32.60509807413777,
            0.365973076382182
          ],
          [
            32.60812608732732,
            0.365885484895149
          ]
        ]
      }
    },
    {
      "type": "Feature",
      "properties": {
        "Road_No_1": "M20",
        "Link_Name": "Kisaasi Interchange Slip 6",
        "Road_Cla_1": "M",
        "Surface__1": "Bituminous",
        "Length_km_": 0.28834229215
      },
      "geometry": {
        "type": "LineString",
        "coordinates": [
          [
            32.60495753421949,
            0.364827338086012
          ],
          [
            32.60315789616765,
            0.363087448372617
          ]
        ]
      }
    },
    {
      "type": "Feature",
      "properties": {
        "Road_No_1": "M20",
        "Link_Name": "Kisaasi Interchange Slip 3",
        "Road_Cla_1": "M",
        "Surface__1": "Bituminous",
        "Length_km_": 0.422365536745
      },
      "geometry": {
        "type": "LineString",
        "coordinates": [
          [
            32.60896684921524,
            0.365625664745431
          ],
          [
            32.60680451469908,
            0.365708121709065
          ],
          [
            32.60539636310703,
            0.365043469023945
          ]
        ]
      }
    },
    {
      "type": "Feature",
      "properties": {
        "Road_No_1": "M20",
        "Link_Name": "Kisaasi Interchange Slip 1",
        "Road_Cla_1": "M",
        "Surface__1": "Bituminous",
        "Length_km_": 0.360816127501
      },
      "geometry": {
        "type": "LineString",
        "coordinates": [
          [
            32.60449911827728,
            0.365836952586409
          ],
          [
            32.605073766287155,
            0.365801463699661
          ],
          [
            32.60531052868529,
            0.364890408306322
          ],
          [
            32.60483068367659,
            0.364918604985063
          ],
          [
            32.60449911827728,
            0.365836952586409
          ]
        ]
      }
    },
    {
      "type": "Feature",
      "properties": {
        "Road_No_1": "M20",
        "Link_Name": "Naalya Interchange Slip 10",
        "Road_Cla_1": "M",
        "Surface__1": "Bituminous",
        "Length_km_": 0.449970020502
      },
      "geometry": {
        "type": "LineString",
        "coordinates": [
          [
            32.633009843062375,
            0.36356436128959
          ],
          [
            32.632949398496336,
            0.365953751984065
          ],
          [
            32.632154217779366,
            0.367394666119729
          ]
        ]
      }
    },
    {
      "type": "Feature",
      "properties": {
        "Road_No_1": "M20",
        "Link_Name": "Naalya Interchange Slip 6",
        "Road_Cla_1": "M",
        "Surface__1": "Bituminous",
        "Length_km_": 0.597525000321
      },
      "geometry": {
        "type": "LineString",
        "coordinates": [
          [
            32.6339506463308,
            0.363360851202306
          ],
          [
            32.634417618268664,
            0.362350366124201
          ],
          [
            32.63567192501118,
            0.361558904750786
          ],
          [
            32.6369087291188,
            0.361490842426007
          ],
          [
            32.63825040165081,
            0.362054459156944
          ]
        ]
      }
    },
    {
      "type": "Feature",
      "properties": {
        "Road_No_1": "M20",
        "Link_Name": "Naalya Interchange Slip 3",
        "Road_Cla_1": "M",
        "Surface__1": "Bituminous",
        "Length_km_": 0.208233888218
      },
      "geometry": {
        "type": "LineString",
        "coordinates": [
          [
            32.63381581605355,
            0.363727349219866
          ],
          [
            32.635587226139634,
            0.363933560160446
          ]
        ]
      }
    },
    {
      "type": "Feature",
      "properties": {
        "Road_No_1": "M20",
        "Link_Name": "Naalya Interchange Slip 4",
        "Road_Cla_1": "M",
        "Surface__1": "Bituminous",
        "Length_km_": 0.233160350834
      },
      "geometry": {
        "type": "LineString",
        "coordinates": [
          [
            32.63340055993189,
            0.364980467432448
          ],
          [
            32.63364072548257,
            0.363974125892055
          ],
          [
            32.63460236027538,
            0.363588118919468
          ]
        ]
      }
    },
    {
      "type": "Feature",
      "properties": {
        "Road_No_1": "M20",
        "Link_Name": "Naalya Interchange Slip 5",
        "Road_Cla_1": "M",
        "Surface__1": "Bituminous",
        "Length_km_": 0.197740432439
      },
      "geometry": {
        "type": "LineString",
        "coordinates": [
          [
            32.63558858588866,
            0.363932200432738
          ],
          [
            32.633950390210174,
            0.363360813193952
          ]
        ]
      }
    },
    {
      "type": "Feature",
      "properties": {
        "Road_No_1": "M20N1",
        "Link_Name": "Kampala NorthernBypass (dual)",
        "Road_Cla_1": "M",
        "Surface__1": "Bituminous",
        "Length_km_": 20.0239325581
      },
      "geometry": {
        "type": "LineString",
        "coordinates": [
          [
            32.51877375783008,
            0.315650792663884
          ],
          [
            32.52135214993875,
            0.318274977423003
          ],
          [
            32.52423532010995,
            0.327298642437696
          ],
          [
            32.527037500022935,
            0.332009147273488
          ],
          [
            32.5307114200589,
            0.33709550182502
          ],
          [
            32.53679799996238,
            0.34322431951449
          ],
          [
            32.544602316306076,
            0.345944930271703
          ],
          [
            32.556713691910474,
            0.347684539188537
          ],
          [
            32.55991601586623,
            0.349287703649965
          ],
          [
            32.56485695069878,
            0.349866310300134
          ],
          [
            32.56800846721185,
            0.352217107944258
          ],
          [
            32.569727416589394,
            0.35282612163784
          ],
          [
            32.57502134542774,
            0.352596728686471
          ],
          [
            32.58247099767074,
            0.349325355843776
          ],
          [
            32.586200212235404,
            0.349665284720214
          ],
          [
            32.58800491238605,
            0.350822578681672
          ],
          [
            32.59155271036657,
            0.356471857027696
          ],
          [
            32.5927133402071,
            0.357604589630411
          ],
          [
            32.6007529134658,
            0.359282308052762
          ],
          [
            32.60215385249967,
            0.36048720499824
          ],
          [
            32.60334795833493,
            0.363777784251885
          ],
          [
            32.60488744278987,
            0.365414239843748
          ],
          [
            32.606807662540824,
            0.366001875611727
          ],
          [
            32.610532458812465,
            0.365751919482569
          ],
          [
            32.61553022221822,
            0.368644272384621
          ],
          [
            32.62680634179826,
            0.369506181957944
          ],
          [
            32.62889844497737,
            0.369194505560218
          ],
          [
            32.63233422876021,
            0.367323961269273
          ],
          [
            32.63309227984658,
            0.366037104491491
          ],
          [
            32.6339461594314,
            0.362596360883897
          ],
          [
            32.636140916537755,
            0.361368460864224
          ],
          [
            32.63792818113058,
            0.361824529730316
          ],
          [
            32.6436778660082,
            0.366321652180013
          ],
          [
            32.64566588674506,
            0.366292998737151
          ],
          [
            32.65124847581324,
            0.360492115267806
          ],
          [
            32.65122755507459,
            0.355557267944527
          ],
          [
            32.65406754174937,
            0.349170147752662
          ]
        ]
      }
    },
    {
      "type": "Feature",
      "properties": {
        "Road_No_1": "M3",
        "Link_Name": "Busega Interchange Slip 6",
        "Road_Cla_1": "M",
        "Surface__1": "Bituminous",
        "Length_km_": 0.592918095901
      },
      "geometry": {
        "type": "LineString",
        "coordinates": [
          [
            32.512659915660365,
            0.306158136156933
          ],
          [
            32.51390149252743,
            0.311327163268516
          ]
        ]
      }
    },
    {
      "type": "Feature",
      "properties": {
        "Road_No_1": "C001",
        "Link_Name": "Nsambya- Cape town Villa",
        "Road_Cla_1": "C",
        "Surface__1": "Bituminous",
        "Length_km_": 2.767
      },
      "geometry": {
        "type": "LineString",
        "coordinates": [
          [
            32.62826867688234,
            0.258064158902563
          ],
          [
            32.6264424707449,
            0.25630199148358
          ],
          [
            32.62692215029392,
            0.253449044589786
          ],
          [
            32.625798249686405,
            0.250031507571839
          ],
          [
            32.62812210023067,
            0.245631112701338
          ],
          [
            32.627722609978505,
            0.242822158084957
          ],
          [
            32.6254244700664,
            0.24076293406053
          ],
          [
            32.62092886321277,
            0.239258380883308
          ]
        ]
      }
    },
    {
      "type": "Feature",
      "properties": {
        "Road_No_1": "M3N1",
        "Link_Name": "Kampala - Entebbe Expressway (dual)",
        "Road_Cla_1": "M",
        "Surface__1": "Bituminous",
        "Length_km_": 24.9583481808
      },
      "geometry": {
        "type": "LineString",
        "coordinates": [
          [
            32.509712734529856,
            0.102862422494862
          ],
          [
            32.51228411488791,
            0.105788075656686
          ],
          [
            32.51320324813915,
            0.109434164318378
          ],
          [
            32.51317281294532,
            0.111473295339703
          ],
          [
            32.51164193981568,
            0.118835470750152
          ],
          [
            32.51113063410295,
            0.129822425658263
          ],
          [
            32.510047153958304,
            0.138380681336063
          ],
          [
            32.51161759190903,
            0.1563980531362
          ],
          [
            32.515519339619765,
            0.172686716513193
          ],
          [
            32.516919342594896,
            0.175663232610819
          ],
          [
            32.524552403371395,
            0.187228416844498
          ],
          [
            32.52684110376077,
            0.201319671640259
          ],
          [
            32.5307671986184,
            0.21237962353501
          ],
          [
            32.531199374117804,
            0.215222218271852
          ],
          [
            32.530341111821755,
            0.21977523879184
          ],
          [
            32.52433935851708,
            0.229931270459909
          ],
          [
            32.523560227849316,
            0.232426907371921
          ],
          [
            32.52394370636485,
            0.241149460240784
          ],
          [
            32.52245848478004,
            0.250158094044399
          ],
          [
            32.52259848526949,
            0.256531088869473
          ],
          [
            32.52060804602305,
            0.261960610251346
          ],
          [
            32.52063848102585,
            0.267706647986362
          ],
          [
            32.52012717658853,
            0.270871838415972
          ],
          [
            32.51831934542265,
            0.274925713289658
          ],
          [
            32.51259759422364,
            0.28274737713838
          ],
          [
            32.51119150412703,
            0.286916899722457
          ],
          [
            32.512445419943376,
            0.296461145524278
          ],
          [
            32.512901942951,
            0.307256237330051
          ],
          [
            32.51656934169112,
            0.313772242165287
          ],
          [
            32.51880028804696,
            0.315668542284168
          ]
        ]
      }
    },
    {
      "type": "Feature",
      "properties": {
        "Road_No_1": "M3",
        "Link_Name": "Munyonyo Spur",
        "Road_Cla_1": "M",
        "Surface__1": "Bituminous",
        "Length_km_": 12.3360181866
      },
      "geometry": {
        "type": "LineString",
        "coordinates": [
          [
            32.53408637788577,
            0.215356801101798
          ],
          [
            32.539377527786534,
            0.213838364913371
          ],
          [
            32.543266870596064,
            0.211562449935126
          ],
          [
            32.54662613181427,
            0.208472860812396
          ],
          [
            32.54839359058667,
            0.207916264447657
          ],
          [
            32.55114369267917,
            0.207996545395785
          ],
          [
            32.55975808069525,
            0.209939462252152
          ],
          [
            32.569083465843995,
            0.20978924863169
          ],
          [
            32.58287912170967,
            0.210737949827548
          ],
          [
            32.585899636110845,
            0.209860787703604
          ],
          [
            32.59153263218197,
            0.206504141330995
          ],
          [
            32.59426563760344,
            0.206346921900777
          ],
          [
            32.59866443928154,
            0.207290574147117
          ],
          [
            32.600406991249514,
            0.208893065501559
          ],
          [
            32.60374498589137,
            0.216540287842781
          ],
          [
            32.60611186456033,
            0.2280487152375
          ],
          [
            32.6086086182397,
            0.235043912630063
          ],
          [
            32.61086923074462,
            0.236679720327986
          ],
          [
            32.620440803376,
            0.239346032008136
          ]
        ]
      }
    },
    {
      "type": "Feature",
      "properties": {
        "Road_No_1": "M3",
        "Link_Name": "Kampala - Entebbe Expressway",
        "Road_Cla_1": "M",
        "Surface__1": "Bituminous",
        "Length_km_": 24.811287602
      },
      "geometry": {
        "type": "LineString",
        "coordinates": [
          [
            32.518923533239104,
            0.31555426644821
          ],
          [
            32.5166378206886,
            0.313702243384946
          ],
          [
            32.51297042182639,
            0.307186237639865
          ],
          [
            32.512513898638076,
            0.296391145729902
          ],
          [
            32.5112599826602,
            0.286846901659266
          ],
          [
            32.512666072695026,
            0.282677379008805
          ],
          [
            32.51838782379304,
            0.274855714081875
          ],
          [
            32.520195654003906,
            0.270801838233023
          ],
          [
            32.520706960190914,
            0.267636648667785
          ],
          [
            32.52067652509812,
            0.26189061087476
          ],
          [
            32.52266696426945,
            0.256461089406467
          ],
          [
            32.52252696368145,
            0.250088094519002
          ],
          [
            32.52401218423788,
            0.24107946150605
          ],
          [
            32.52362870469103,
            0.232356908554855
          ],
          [
            32.52440783712298,
            0.229861270701268
          ],
          [
            32.53040958941101,
            0.219705238842163
          ],
          [
            32.53126785254445,
            0.215152218264354
          ],
          [
            32.53083567790057,
            0.212309623505592
          ],
          [
            32.52690958286352,
            0.201249671557193
          ],
          [
            32.52462088136385,
            0.187158416652528
          ],
          [
            32.51698782127763,
            0.175593232409177
          ],
          [
            32.515587818252165,
            0.172616718110144
          ],
          [
            32.51168607029186,
            0.156328053715148
          ],
          [
            32.51011563208822,
            0.138310681750169
          ],
          [
            32.511199113027075,
            0.129752425969491
          ],
          [
            32.511710418601716,
            0.118765470941368
          ],
          [
            32.513296074192716,
            0.110338077221929
          ],
          [
            32.51282737753635,
            0.106631119322385
          ],
          [
            32.510721117953494,
            0.103757840431646
          ]
        ]
      }
    },
    {
      "type": "Feature",
      "properties": {
        "Road_No_1": "M20",
        "Link_Name": "Naalya Interchange Slip 11",
        "Road_Cla_1": "M",
        "Surface__1": "Bituminous",
        "Length_km_": 0.368758245804
      },
      "geometry": {
        "type": "LineString",
        "coordinates": [
          [
            32.631243929583704,
            0.363631872666555
          ],
          [
            32.63289300286215,
            0.363563810966577
          ],
          [
            32.63306996735794,
            0.365156456596909
          ]
        ]
      }
    },
    {
      "type": "Feature",
      "properties": {
        "Road_No_1": "M20",
        "Link_Name": "Kalerwe Interchange Slip 1",
        "Road_Cla_1": "M",
        "Surface__1": "Bituminous",
        "Length_km_": 0.449425622974
      },
      "geometry": {
        "type": "LineString",
        "coordinates": [
          [
            32.571912480885,
            0.353447675337727
          ],
          [
            32.575745751308986,
            0.35234850246207
          ]
        ]
      }
    },
    {
      "type": "Feature",
      "properties": {
        "Road_No_1": "M20",
        "Link_Name": "Kalerwe Interchange Slip 2",
        "Road_Cla_1": "M",
        "Surface__1": "Bituminous",
        "Length_km_": 0.3988436888
      },
      "geometry": {
        "type": "LineString",
        "coordinates": [
          [
            32.57567986123466,
            0.352225368043063
          ],
          [
            32.572155030305346,
            0.352321387786737
          ]
        ]
      }
    },
    {
      "type": "Feature",
      "properties": {
        "Road_No_1": "A009",
        "Link_Name": "Kampala - Nansana",
        "Road_Cla_1": "A",
        "Surface__1": "Bituminous",
        "Length_km_": 5.305
      },
      "geometry": {
        "type": "LineString",
        "coordinates": [
          [
            32.56052993170301,
            0.324633905360159
          ],
          [
            32.557636055708606,
            0.326080146601005
          ],
          [
            32.55763451455897,
            0.329865889161157
          ],
          [
            32.55624375103869,
            0.332144522257012
          ],
          [
            32.5504401476326,
            0.33308406372199
          ],
          [
            32.54926831090729,
            0.333864705096243
          ],
          [
            32.54583702530641,
            0.340598047389718
          ],
          [
            32.54308494182141,
            0.344385570235965
          ],
          [
            32.54238514757037,
            0.344664100517205
          ],
          [
            32.5419870392528,
            0.345925264707983
          ],
          [
            32.53226067947319,
            0.358824512379868
          ]
        ]
      }
    },
    {
      "type": "Feature",
      "properties": {
        "Road_No_1": "M20",
        "Link_Name": "Masanafu Interchange Slip 1",
        "Road_Cla_1": "M",
        "Surface__1": "Bituminous",
        "Length_km_": 0.390466613946
      },
      "geometry": {
        "type": "MultiLineString",
        "coordinates": [
          [
            [
              32.52677064263988,
              0.332569940759147
            ],
            [
              32.526972427639045,
              0.332548557959319
            ],
            [
              32.527612692019055,
              0.332142946627819
            ],
            [
              32.52771125431323,
              0.332008921856039
            ],
            [
              32.52771431918278,
              0.331999599068647
            ]
          ],
          [
            [
              32.526533201823945,
              0.332019413033095
            ],
            [
              32.52677643908633,
              0.332567918129708
            ]
          ],
          [
            [
              32.52742038905651,
              0.33151424228521
            ],
            [
              32.527402777410565,
              0.331508512878104
            ],
            [
              32.52727055872735,
              0.331544223178537
            ],
            [
              32.52675498289661,
              0.331864968815275
            ],
            [
              32.52653407640219,
              0.332015561767479
            ],
            [
              32.52653215484076,
              0.332020371964576
            ]
          ],
          [
            [
              32.52771161126698,
              0.332004999093479
            ],
            [
              32.527408492783245,
              0.331510581297104
            ]
          ]
        ]
      }
    },
    {
      "type": "Feature",
      "properties": {
        "Road_No_1": "M3",
        "Link_Name": "Busega Interchange Slip 5",
        "Road_Cla_1": "M",
        "Surface__1": "Bituminous",
        "Length_km_": 0.56109949186
      },
      "geometry": {
        "type": "LineString",
        "coordinates": [
          [
            32.51516663062126,
            0.309330078266026
          ],
          [
            32.51444620878132,
            0.309339312837699
          ],
          [
            32.513592501747276,
            0.308347550455868
          ],
          [
            32.51267267629268,
            0.305506440130433
          ]
        ]
      }
    },
    {
      "type": "Feature",
      "properties": {
        "Road_No_1": "A009N1",
        "Link_Name": "Kasubi (Dual)",
        "Road_Cla_1": "A",
        "Surface__1": "Bituminous",
        "Length_km_": 1.3652166541
      },
      "geometry": {
        "type": "LineString",
        "coordinates": [
          [
            32.553972237773664,
            0.332726715422933
          ],
          [
            32.5556575904255,
            0.332583698619364
          ],
          [
            32.55660949817192,
            0.331993794321968
          ],
          [
            32.55778453995357,
            0.329805591022959
          ],
          [
            32.55763514585368,
            0.326233599727259
          ],
          [
            32.56052993170301,
            0.324633905360159
          ]
        ]
      }
    },
    {
      "type": "Feature",
      "properties": {
        "Road_No_1": "M20",
        "Link_Name": "Namungoona Interchange Slip 3",
        "Road_Cla_1": "M",
        "Surface__1": "Bituminous",
        "Length_km_": 0.454223056794
      },
      "geometry": {
        "type": "LineString",
        "coordinates": [
          [
            32.542481974037464,
            0.344604999208741
          ],
          [
            32.53852588150513,
            0.343762122889886
          ]
        ]
      }
    },
    {
      "type": "Feature",
      "properties": {
        "Road_No_1": "M20",
        "Link_Name": "Namungoona Interchange Slip 1",
        "Road_Cla_1": "M",
        "Surface__1": "Bituminous",
        "Length_km_": 0.499962131665
      },
      "geometry": {
        "type": "LineString",
        "coordinates": [
          [
            32.54221949296477,
            0.34582370239549
          ],
          [
            32.54663104859019,
            0.346291511946554
          ]
        ]
      }
    },
    {
      "type": "Feature",
      "properties": {
        "Road_No_1": "M20",
        "Link_Name": "Bwaise Interchange Slip 2",
        "Road_Cla_1": "M",
        "Surface__1": "Bituminous",
        "Length_km_": 0.367191367369
      },
      "geometry": {
        "type": "LineString",
        "coordinates": [
          [
            32.56273980881895,
            0.348971062194275
          ],
          [
            32.559552179412634,
            0.34898716368578
          ]
        ]
      }
    },
    {
      "type": "Feature",
      "properties": {
        "Road_No_1": "M20",
        "Link_Name": "Kalerwe Interchange Slip 3",
        "Road_Cla_1": "M",
        "Surface__1": "Bituminous",
        "Length_km_": 1.09230341003
      },
      "geometry": {
        "type": "LineString",
        "coordinates": [
          [
            32.571884141245256,
            0.352173800587332
          ],
          [
            32.57093325493324,
            0.352573318846952
          ],
          [
            32.56886164356504,
            0.352413339379657
          ],
          [
            32.56547586491507,
            0.349831590367152
          ],
          [
            32.56335550678269,
            0.349046780380544
          ]
        ]
      }
    },
    {
      "type": "Feature",
      "properties": {
        "Road_No_1": "M20",
        "Link_Name": "Kyebando Interchange Slip 3",
        "Road_Cla_1": "M",
        "Surface__1": "Bituminous",
        "Length_km_": 0.498946280557
      },
      "geometry": {
        "type": "LineString",
        "coordinates": [
          [
            32.58869522499584,
            0.352777490493853
          ],
          [
            32.59143458002512,
            0.35629501302989
          ]
        ]
      }
    },
    {
      "type": "Feature",
      "properties": {
        "Road_No_1": "M20",
        "Link_Name": "Kyebando Interchange Slip 2",
        "Road_Cla_1": "M",
        "Surface__1": "Bituminous",
        "Length_km_": 0.109607456281
      },
      "geometry": {
        "type": "LineString",
        "coordinates": [
          [
            32.587718632874825,
            0.352743073531884
          ],
          [
            32.58869636005101,
            0.352776647356915
          ]
        ]
      }
    },
    {
      "type": "Feature",
      "properties": {
        "Road_No_1": "M20",
        "Link_Name": "Kyebando Interchange Slip 7",
        "Road_Cla_1": "M",
        "Surface__1": "Bituminous",
        "Length_km_": 0.447093884321
      },
      "geometry": {
        "type": "LineString",
        "coordinates": [
          [
            32.589468514019124,
            0.351994270606246
          ],
          [
            32.58784114543047,
            0.350349239332051
          ],
          [
            32.58633743567336,
            0.349613685399327
          ]
        ]
      }
    },
    {
      "type": "Feature",
      "properties": {
        "Road_No_1": "M20",
        "Link_Name": "Kyebando Interchange Slip 6",
        "Road_Cla_1": "M",
        "Surface__1": "Bituminous",
        "Length_km_": 0.131783430607
      },
      "geometry": {
        "type": "LineString",
        "coordinates": [
          [
            32.59047227343558,
            0.352513608241596
          ],
          [
            32.589459375711975,
            0.35198851716535
          ]
        ]
      }
    },
    {
      "type": "Feature",
      "properties": {
        "Road_No_1": "M20",
        "Link_Name": "Kyebando Interchange Slip 1",
        "Road_Cla_1": "M",
        "Surface__1": "Bituminous",
        "Length_km_": 0.333585746494
      },
      "geometry": {
        "type": "LineString",
        "coordinates": [
          [
            32.588535747647306,
            0.352360342652785
          ],
          [
            32.58852780845814,
            0.352450322702293
          ],
          [
            32.588534424069366,
            0.352561473555538
          ],
          [
            32.588560889469086,
            0.352631604042819
          ],
          [
            32.588744821212266,
            0.352786422164269
          ],
          [
            32.58962345774317,
            0.352286242919647
          ],
          [
            32.58930852509367,
            0.351971314701228
          ],
          [
            32.58866013276719,
            0.352247869510814
          ],
          [
            32.58858073742049,
            0.352304767563726
          ],
          [
            32.588550303349884,
            0.352340494921165
          ],
          [
            32.58853442379276,
            0.352362989768191
          ]
        ]
      }
    },
    {
      "type": "Feature",
      "properties": {
        "Road_No_1": "M20",
        "Link_Name": "Kisaasi Interchange Slip 5",
        "Road_Cla_1": "M",
        "Surface__1": "Bituminous",
        "Length_km_": 0.191146727069
      },
      "geometry": {
        "type": "LineString",
        "coordinates": [
          [
            32.60619680821435,
            0.36352674079285
          ],
          [
            32.605052337052925,
            0.364802249256635
          ]
        ]
      }
    },
    {
      "type": "Feature",
      "properties": {
        "Road_No_1": "M20",
        "Link_Name": "Kisaasi Interchange Slip 4",
        "Road_Cla_1": "M",
        "Surface__1": "Bituminous",
        "Length_km_": 0.188192684536
      },
      "geometry": {
        "type": "LineString",
        "coordinates": [
          [
            32.60539039468875,
            0.364989444943143
          ],
          [
            32.606229866731944,
            0.363547646461714
          ]
        ]
      }
    },
    {
      "type": "Feature",
      "properties": {
        "Road_No_1": "M20",
        "Link_Name": "Kisaasi Interchange Slip 8",
        "Road_Cla_1": "M",
        "Surface__1": "Bituminous",
        "Length_km_": 0.0588794539206
      },
      "geometry": {
        "type": "LineString",
        "coordinates": [
          [
            32.6044955430508,
            0.365823544635925
          ],
          [
            32.60447383776472,
            0.36632894142797
          ]
        ]
      }
    },
    {
      "type": "Feature",
      "properties": {
        "Road_No_1": "M20",
        "Link_Name": "Naalya Interchange Slip 9",
        "Road_Cla_1": "M",
        "Surface__1": "Bituminous",
        "Length_km_": 0.205516214702
      },
      "geometry": {
        "type": "LineString",
        "coordinates": [
          [
            32.631243929583704,
            0.363631872666555
          ],
          [
            32.63300683622477,
            0.363561236290202
          ]
        ]
      }
    },
    {
      "type": "Feature",
      "properties": {
        "Road_No_1": "M20",
        "Link_Name": "Naalya Interchange Slip 8",
        "Road_Cla_1": "M",
        "Surface__1": "Bituminous",
        "Length_km_": 0.204860108051
      },
      "geometry": {
        "type": "LineString",
        "coordinates": [
          [
            32.63299317330336,
            0.363125163488153
          ],
          [
            32.631236150874855,
            0.363560164862451
          ]
        ]
      }
    },
    {
      "type": "Feature",
      "properties": {
        "Road_No_1": "M20",
        "Link_Name": "Naalya Interchange Slip 7",
        "Road_Cla_1": "M",
        "Surface__1": "Bituminous",
        "Length_km_": 0.390341151047
      },
      "geometry": {
        "type": "LineString",
        "coordinates": [
          [
            32.636000371832445,
            0.3612816326391
          ],
          [
            32.63437872471352,
            0.361807816622196
          ],
          [
            32.63311639306022,
            0.363039676826571
          ]
        ]
      }
    },
    {
      "type": "Feature",
      "properties": {
        "Road_No_1": "M20",
        "Link_Name": "Naalya Interchange Slip 2",
        "Road_Cla_1": "M",
        "Surface__1": "Bituminous",
        "Length_km_": 0.400086188169
      },
      "geometry": {
        "type": "LineString",
        "coordinates": [
          [
            32.63258652278953,
            0.367011962689084
          ],
          [
            32.63381337607541,
            0.363729272538774
          ]
        ]
      }
    },
    {
      "type": "Feature",
      "properties": {
        "Road_No_1": "M20",
        "Link_Name": "Naalya Interchange Slip 1",
        "Road_Cla_1": "M",
        "Surface__1": "Bituminous",
        "Length_km_": 0.312431097217
      },
      "geometry": {
        "type": "MultiLineString",
        "coordinates": [
          [
            [
              32.63299270327568,
              0.36312568729738
            ],
            [
              32.63291828374914,
              0.363289619031368
            ],
            [
              32.63294161994651,
              0.363437411075306
            ],
            [
              32.63297856872587,
              0.363509361643354
            ],
            [
              32.633009843062375,
              0.36356436128959
            ]
          ],
          [
            [
              32.63300683622477,
              0.363561236290202
            ],
            [
              32.63300871079443,
              0.363562837707722
            ],
            [
              32.633119556033456,
              0.363605620660391
            ],
            [
              32.63365239343532,
              0.363739798623479
            ],
            [
              32.63381581605355,
              0.363727349219866
            ]
          ],
          [
            [
              32.633950390210174,
              0.363360813193952
            ],
            [
              32.63299317330336,
              0.363125163488153
            ]
          ],
          [
            [
              32.63381337607541,
              0.363729272538774
            ],
            [
              32.63381671743149,
              0.36372715926708
            ],
            [
              32.633877001874986,
              0.363670764671749
            ],
            [
              32.63395284296228,
              0.363532696892044
            ],
            [
              32.6339506463308,
              0.363360851202306
            ]
          ]
        ]
      }
    },
    {
      "type": "Feature",
      "properties": {
        "Road_No_1": "M20",
        "Link_Name": "Masanafu Interchange Slip 2",
        "Road_Cla_1": "M",
        "Surface__1": "Bituminous",
        "Length_km_": 0.0995216766546
      },
      "geometry": {
        "type": "LineString",
        "coordinates": [
          [
            32.52590801340683,
            0.332575928006974
          ],
          [
            32.52677064263988,
            0.332569940759147
          ]
        ]
      }
    },
    {
      "type": "Feature",
      "properties": {
        "Road_No_1": "M20",
        "Link_Name": "Masanafu Interchange Slip 5",
        "Road_Cla_1": "M",
        "Surface__1": "Bituminous",
        "Length_km_": 0.0892240373596
      },
      "geometry": {
        "type": "LineString",
        "coordinates": [
          [
            32.52771431918278,
            0.331999599068647
          ],
          [
            32.528330221220855,
            0.33152996802946
          ]
        ]
      }
    },
    {
      "type": "Feature",
      "properties": {
        "Road_No_1": "M20",
        "Link_Name": "Masanafu Interchange Slip 8",
        "Road_Cla_1": "M",
        "Surface__1": "Bituminous",
        "Length_km_": 0.425130324694
      },
      "geometry": {
        "type": "LineString",
        "coordinates": [
          [
            32.52486518012174,
            0.328605590002651
          ],
          [
            32.526533201823945,
            0.332019413033095
          ]
        ]
      }
    },
    {
      "type": "Feature",
      "properties": {
        "Road_No_1": "M20",
        "Link_Name": "Masanafu Interchange Slip 9",
        "Road_Cla_1": "M",
        "Surface__1": "Bituminous",
        "Length_km_": 0.0963171832672
      },
      "geometry": {
        "type": "LineString",
        "coordinates": [
          [
            32.52653215484076,
            0.332020371964576
          ],
          [
            32.52590138387973,
            0.332559627708601
          ]
        ]
      }
    },
    {
      "type": "Feature",
      "properties": {
        "Road_No_1": "M20",
        "Link_Name": "Masanafu Interchange Slip 6",
        "Road_Cla_1": "M",
        "Surface__1": "Bituminous",
        "Length_km_": 0.104371854207
      },
      "geometry": {
        "type": "LineString",
        "coordinates": [
          [
            32.528322713652976,
            0.33151457329078
          ],
          [
            32.52742038905651,
            0.33151424228521
          ]
        ]
      }
    },
    {
      "type": "Feature",
      "properties": {
        "Road_No_1": "M20",
        "Link_Name": "Masanafu Interchange Slip 7",
        "Road_Cla_1": "M",
        "Surface__1": "Bituminous",
        "Length_km_": 0.356485869738
      },
      "geometry": {
        "type": "LineString",
        "coordinates": [
          [
            32.527408492783245,
            0.331510581297104
          ],
          [
            32.525332151641834,
            0.329102817275646
          ]
        ]
      }
    },
    {
      "type": "Feature",
      "properties": {
        "Road_No_1": "M20",
        "Link_Name": "Busega Interchange Slip 3",
        "Road_Cla_1": "M",
        "Surface__1": "Bituminous",
        "Length_km_": 0.779374488257
      },
      "geometry": {
        "type": "LineString",
        "coordinates": [
          [
            32.51890371579343,
            0.31554068327969
          ],
          [
            32.5170492242246,
            0.313825669748912
          ],
          [
            32.51548176661304,
            0.309666513954094
          ]
        ]
      }
    },
    {
      "type": "Feature",
      "properties": {
        "Road_No_1": "M20",
        "Link_Name": "Bwaise Interchange Slip 1",
        "Road_Cla_1": "M",
        "Surface__1": "Bituminous",
        "Length_km_": 1.09307027299
      },
      "geometry": {
        "type": "LineString",
        "coordinates": [
          [
            32.56295327847754,
            0.350140058100593
          ],
          [
            32.56519881886768,
            0.350106966876895
          ],
          [
            32.568376540539596,
            0.352481107227698
          ],
          [
            32.571753430208034,
            0.353294826090146
          ]
        ]
      }
    },
    {
      "type": "Feature",
      "properties": {
        "Road_No_1": "M20",
        "Link_Name": "Namungoona Interchange Slip 2",
        "Road_Cla_1": "M",
        "Surface__1": "Bituminous",
        "Length_km_": 0.516907737093
      },
      "geometry": {
        "type": "LineString",
        "coordinates": [
          [
            32.546919232375004,
            0.346165008592096
          ],
          [
            32.54327441166827,
            0.345168936502567
          ],
          [
            32.542707065282706,
            0.344572305110845
          ]
        ]
      }
    },
    {
      "type": "Feature",
      "properties": {
        "Road_No_1": "A009N2",
        "Link_Name": "Namungoona (Dual)",
        "Road_Cla_1": "A",
        "Surface__1": "Bituminous",
        "Length_km_": 0.519130274072
      },
      "geometry": {
        "type": "LineString",
        "coordinates": [
          [
            32.540595040169194,
            0.34781498867044
          ],
          [
            32.54267371806241,
            0.345713104710651
          ],
          [
            32.54318610442367,
            0.344249036572346
          ]
        ]
      }
    },
    {
      "type": "Feature",
      "properties": {
        "Road_No_1": "M20",
        "Link_Name": "Busega Interchange Slip 1",
        "Road_Cla_1": "M",
        "Surface__1": "Bituminous",
        "Length_km_": 0.768949811414
      },
      "geometry": {
        "type": "LineString",
        "coordinates": [
          [
            32.51390721181061,
            0.312066776126233
          ],
          [
            32.51540211980224,
            0.309881450374727
          ],
          [
            32.51632971243922,
            0.307285444881906
          ],
          [
            32.51715669991942,
            0.306487376288114
          ]
        ]
      }
    },
    {
      "type": "Feature",
      "properties": {
        "Road_No_1": "M20",
        "Link_Name": "Busega Interchange Slip 2",
        "Road_Cla_1": "M",
        "Surface__1": "Bituminous",
        "Length_km_": 0.663654237384
      },
      "geometry": {
        "type": "LineString",
        "coordinates": [
          [
            32.514347428992984,
            0.311791907611167
          ],
          [
            32.51877375783008,
            0.315650792663884
          ]
        ]
      }
    },
    {
      "type": "Feature",
      "properties": {
        "Road_No_1": "M3",
        "Link_Name": "Busega Interchange Slip 4",
        "Road_Cla_1": "M",
        "Surface__1": "Bituminous",
        "Length_km_": 0.676711856489
      },
      "geometry": {
        "type": "LineString",
        "coordinates": [
          [
            32.516476871500096,
            0.306510447799216
          ],
          [
            32.51390975305439,
            0.311639109966993
          ]
        ]
      }
    }
  ]
}